{
  "type": "FeatureCollection",
  "features": [
    {
      "type": "Feature",
      "properties": {
        "norad_id": 66310,
        "name": "LVM3 R/B",
        "group": "last-30-days",
        "lat": 10.253463875194516,
        "lon": 170.97844718921576,
        "alt_km": 26414.048400504504,
        "timestamp": "2025-12-02T08:59:31.501590+00:00",
        "meta_object_name": "LVM3 R/B",
        "meta_object_id": "2025-249A",
        "meta_epoch": "2025-12-01T08:08:40.653888",
        "meta_mean_motion": 3.14269232,
        "meta_eccentricity": 0.66687925,
        "meta_inclination": 21.349,
        "meta_ra_of_asc_node": 143.9958,
        "meta_arg_of_pericenter": 208.0487,
        "meta_mean_anomaly": 89.1049,
        "meta_ephemeris_type": 0,
        "meta_classification_type": "U",
        "meta_norad_cat_id": 66310,
        "meta_element_set_no": 999,
        "meta_rev_at_epoch": 92,
        "meta_bstar": 0.0012816185,
        "meta_mean_motion_dot": 0.00047432,
        "meta_mean_motion_ddot": -3.64541e-07,
        "tle_line1": "1 66310U 25249A   25335.33935942  .00047432 -36454-6  12816-2 0  9993",
        "tle_line2": "2 66310  21.3490 143.9958 6668792 208.0487  89.1049  3.14269232   923"
      },
      "geometry": {
        "type": "Point",
        "coordinates": [
          170.97844718921576,
          10.253463875194516
        ]
      }
    },
    {
      "type": "Feature",
      "properties": {
        "norad_id": 66311,
        "name": "CMS-03 (GSAT-7R)",
        "group": "last-30-days",
        "lat": 0.07454255488468157,
        "lon": -60.198872052683114,
        "alt_km": 35803.5486752263,
        "timestamp": "2025-12-02T08:59:31.501643+00:00",
        "meta_object_name": "CMS-03 (GSAT-7R)",
        "meta_object_id": "2025-249B",
        "meta_epoch": "2025-12-02T00:31:54.223968",
        "meta_mean_motion": 1.00268583,
        "meta_eccentricity": 0.0004014,
        "meta_inclination": 0.1679,
        "meta_ra_of_asc_node": 272.063,
        "meta_arg_of_pericenter": 195.7202,
        "meta_mean_anomaly": 64.8082,
        "meta_ephemeris_type": 0,
        "meta_classification_type": "U",
        "meta_norad_cat_id": 66311,
        "meta_element_set_no": 999,
        "meta_rev_at_epoch": 37,
        "meta_bstar": 0,
        "meta_mean_motion_dot": -2.36e-06,
        "meta_mean_motion_ddot": 0,
        "tle_line1": "1 66311U 25249B   25336.02215537 -.00000236  00000+0  00000+0 0  9993",
        "tle_line2": "2 66311   0.1679 272.0630 0004014 195.7202  64.8082  1.00268583   378"
      },
      "geometry": {
        "type": "Point",
        "coordinates": [
          -60.198872052683114,
          0.07454255488468157
        ]
      }
    },
    {
      "type": "Feature",
      "properties": {
        "norad_id": 66313,
        "name": "YAOGAN-46",
        "group": "last-30-days",
        "lat": -18.560393773918733,
        "lon": 31.88932351084396,
        "alt_km": 7485.845776289364,
        "timestamp": "2025-12-02T08:59:31.501662+00:00",
        "meta_object_name": "YAOGAN-46",
        "meta_object_id": "2025-250A",
        "meta_epoch": "2025-11-23T01:44:02.775840",
        "meta_mean_motion": 5.35115916,
        "meta_eccentricity": 0.00492374,
        "meta_inclination": 20.0335,
        "meta_ra_of_asc_node": 104.8243,
        "meta_arg_of_pericenter": 135.6954,
        "meta_mean_anomaly": 224.7061,
        "meta_ephemeris_type": 0,
        "meta_classification_type": "U",
        "meta_norad_cat_id": 66313,
        "meta_element_set_no": 999,
        "meta_rev_at_epoch": 114,
        "meta_bstar": 0,
        "meta_mean_motion_dot": -7e-08,
        "meta_mean_motion_ddot": 0,
        "tle_line1": "1 66313U 25250A   25327.07225435 -.00000007  00000+0  00000+0 0  9996",
        "tle_line2": "2 66313  20.0335 104.8243 0049237 135.6954 224.7061  5.35115916  1148"
      },
      "geometry": {
        "type": "Point",
        "coordinates": [
          31.88932351084396,
          -18.560393773918733
        ]
      }
    },
    {
      "type": "Feature",
      "properties": {
        "norad_id": 66315,
        "name": "SENTINEL-1D",
        "group": "last-30-days",
        "lat": 18.93660548901961,
        "lon": -21.291363748779126,
        "alt_km": 695.0059944061431,
        "timestamp": "2025-12-02T08:59:31.501676+00:00",
        "meta_object_name": "SENTINEL-1D",
        "meta_object_id": "2025-251A",
        "meta_epoch": "2025-12-02T00:40:48.264096",
        "meta_mean_motion": 14.59909618,
        "meta_eccentricity": 0.0002558,
        "meta_inclination": 98.1924,
        "meta_ra_of_asc_node": 341.1996,
        "meta_arg_of_pericenter": 156.7626,
        "meta_mean_anomaly": 203.369,
        "meta_ephemeris_type": 0,
        "meta_classification_type": "U",
        "meta_norad_cat_id": 66315,
        "meta_element_set_no": 999,
        "meta_rev_at_epoch": 397,
        "meta_bstar": 6.54e-05,
        "meta_mean_motion_dot": 2.67e-06,
        "meta_mean_motion_ddot": 0,
        "tle_line1": "1 66315U 25251A   25336.02833639  .00000267  00000+0  65400-4 0  9992",
        "tle_line2": "2 66315  98.1924 341.1996 0002558 156.7626 203.3690 14.59909618  3976"
      },
      "geometry": {
        "type": "Point",
        "coordinates": [
          -21.291363748779126,
          18.93660548901961
        ]
      }
    },
    {
      "type": "Feature",
      "properties": {
        "norad_id": 66316,
        "name": "QPS-SAR-14 (YACHIHOKO-I)",
        "group": "last-30-days",
        "lat": -30.501890308804725,
        "lon": -6.900291322408619,
        "alt_km": 581.4144333953736,
        "timestamp": "2025-12-02T08:59:31.501689+00:00",
        "meta_object_name": "QPS-SAR-14 (YACHIHOKO-I)",
        "meta_object_id": "2025-252A",
        "meta_epoch": "2025-12-01T22:22:08.569632",
        "meta_mean_motion": 14.97516948,
        "meta_eccentricity": 0.0006919,
        "meta_inclination": 42.003,
        "meta_ra_of_asc_node": 134.6343,
        "meta_arg_of_pericenter": 75.2493,
        "meta_mean_anomaly": 284.9098,
        "meta_ephemeris_type": 0,
        "meta_classification_type": "U",
        "meta_norad_cat_id": 66316,
        "meta_element_set_no": 999,
        "meta_rev_at_epoch": 391,
        "meta_bstar": 0.0005936,
        "meta_mean_motion_dot": 6.864e-05,
        "meta_mean_motion_ddot": 0,
        "tle_line1": "1 66316U 25252A   25335.93204363  .00006864  00000+0  59360-3 0  9995",
        "tle_line2": "2 66316  42.0030 134.6343 0006919  75.2493 284.9098 14.97516948  3919"
      },
      "geometry": {
        "type": "Point",
        "coordinates": [
          -6.900291322408619,
          -30.501890308804725
        ]
      }
    },
    {
      "type": "Feature",
      "properties": {
        "norad_id": 66317,
        "name": "ELECTRON R/B",
        "group": "last-30-days",
        "lat": -19.10349075540716,
        "lon": 91.55378913899133,
        "alt_km": 273.0210834808022,
        "timestamp": "2025-12-02T08:59:31.501705+00:00",
        "meta_object_name": "ELECTRON R/B",
        "meta_object_id": "2025-252B",
        "meta_epoch": "2025-11-29T21:07:58.211904",
        "meta_mean_motion": 15.94243293,
        "meta_eccentricity": 0.01246685,
        "meta_inclination": 41.9889,
        "meta_ra_of_asc_node": 130.1303,
        "meta_arg_of_pericenter": 46.1701,
        "meta_mean_anomaly": 314.9386,
        "meta_ephemeris_type": 0,
        "meta_classification_type": "U",
        "meta_norad_cat_id": 66317,
        "meta_element_set_no": 999,
        "meta_rev_at_epoch": 378,
        "meta_bstar": 0.0019142518,
        "meta_mean_motion_dot": 0.01669799,
        "meta_mean_motion_ddot": 7.910989e-06,
        "tle_line1": "1 66317U 25252B   25333.88053486  .01669799  79110-5  19143-2 0  9997",
        "tle_line2": "2 66317  41.9889 130.1303 0124668  46.1701 314.9386 15.94243293  3785"
      },
      "geometry": {
        "type": "Point",
        "coordinates": [
          91.55378913899133,
          -19.10349075540716
        ]
      }
    },
    {
      "type": "Feature",
      "properties": {
        "norad_id": 66319,
        "name": "STARLINK-35442",
        "group": "last-30-days",
        "lat": -42.488363945331464,
        "lon": -55.001528930744584,
        "alt_km": 446.67539003332877,
        "timestamp": "2025-12-02T08:59:31.501718+00:00",
        "meta_object_name": "STARLINK-35442",
        "meta_object_id": "2025-253A",
        "meta_epoch": "2025-12-02T04:00:03.998880",
        "meta_mean_motion": 15.40644955,
        "meta_eccentricity": 0.0001283,
        "meta_inclination": 43.0007,
        "meta_ra_of_asc_node": 46.8027,
        "meta_arg_of_pericenter": 283.1417,
        "meta_mean_anomaly": 264.2727,
        "meta_ephemeris_type": 0,
        "meta_classification_type": "U",
        "meta_norad_cat_id": 66319,
        "meta_element_set_no": 999,
        "meta_rev_at_epoch": 532,
        "meta_bstar": 0.001587,
        "meta_mean_motion_dot": 0.00066445,
        "meta_mean_motion_ddot": 0,
        "tle_line1": "1 66319U 25253A   25336.16671295  .00066445  00000+0  15870-2 0  9995",
        "tle_line2": "2 66319  43.0007  46.8027 0001283 283.1417 264.2727 15.40644955  5321"
      },
      "geometry": {
        "type": "Point",
        "coordinates": [
          -55.001528930744584,
          -42.488363945331464
        ]
      }
    }
  ]
}